NORAD_CAT_ID,OBJECT_NAME,OBJECT_TYPE,EPOCH,MEAN_MOTION,ECCENTRICITY,INCLINATION,RA_OF_ASC_NODE,ARG_OF_PERICENTER,MEAN_ANOMALY,BSTAR,MEAN_MOTION_DOT,MEAN_MOTION_DDOT,TLE_LINE0,TLE_LINE1,TLE_LINE2,SEMIMAJOR_AXIS,PERIOD,APOGEE,PERIGEE,DECAYED
52373.0,STARLINK-3550,PAYLOAD,2023-11-14 11:10:25,15.08832437,0.000148,53.2192,27.97,93.2467,266.8695,-2.0056e-06,-3.2e-06,0.0,0 STARLINK-3550,1 52373U 22045AU  23318.46557784 -.00000320  00000-0 -20056-5 0  9991,2 52373  53.2192  27.9700 0001480  93.2467 266.8695 15.08832437 88170,6917.904,95.438,540.792,538.745,0.0
52373.0,STARLINK-3550,PAYLOAD,2023-11-14 22:18:07,15.08838428,0.0001393,53.2186,25.8887,87.5325,272.5826,-1.8018e-05,-5.75e-06,0.0,0 STARLINK-3550,1 52373U 22045AU  23318.92925421 -.00000575  00000-0 -18018-4 0  9995,2 52373  53.2186  25.8887 0001393  87.5325 272.5826 15.08838428 88242,6917.885,95.438,540.714,538.787,0.0
52373.0,STARLINK-3550,PAYLOAD,2023-11-15 11:01:12,15.08847025,0.0001448,53.2189,23.5103,86.8288,273.287,-4.2162e-05,-9.59e-06,0.0,0 STARLINK-3550,1 52373U 22045AU  23319.45917015 -.00000959  00000-0 -42162-4 0  9997,2 52373  53.2189  23.5103 0001448  86.8288 273.2870 15.08847025 88321,6917.859,95.437,540.726,538.722,0.0
52373.0,STARLINK-3550,PAYLOAD,2023-11-16 07:41:13,15.08835141,0.0001439,53.2198,19.6443,96.8428,263.2728,0.00010806,1.432e-05,0.0,0 STARLINK-3550,1 52373U 22045AU  23320.32029245  .00001432  00000-0  10806-3 0  9998,2 52373  53.2198  19.6443 0001439  96.8428 263.2728 15.08835141 88452,6917.895,95.438,540.756,538.765,0.0
52373.0,STARLINK-3550,PAYLOAD,2023-11-16 09:16:36,15.08837211,0.0001274,53.2197,19.344,100.867,259.2465,0.00015474,2.175e-05,0.0,0 STARLINK-3550,1 52373U 22045AU  23320.38652958  .00002175  00000-0  15474-3 0  9998,2 52373  53.2197  19.3440 0001274 100.8670 259.2465 15.08837211 88461,6917.889,95.438,540.635,538.873,0.0
52373.0,STARLINK-3550,PAYLOAD,2023-11-17 10:42:46,15.0883849,0.0001494,53.2195,14.5896,94.8923,265.224,3.822e-05,3.2e-06,0.0,0 STARLINK-3550,1 52373U 22045AU  23321.44637519  .00000320  00000-0  38220-4 0  9997,2 52373  53.2195  14.5896 0001494  94.8923 265.2240 15.08838490 88624,6917.885,95.438,540.784,538.716,0.0
52373.0,STARLINK-3550,PAYLOAD,2023-11-17 20:15:05,15.0883704,0.0001433,53.2194,12.8058,101.7552,258.3601,2.3819e-05,9.1e-07,0.0,0 STARLINK-3550,1 52373U 22045AU  23321.84381634  .00000091  00000-0  23819-4 0  9998,2 52373  53.2194  12.8058 0001433 101.7552 258.3601 15.08837040 88683,6917.889,95.438,540.746,538.763,0.0
52373.0,STARLINK-3550,PAYLOAD,2023-11-18 12:08:56,15.08852372,0.0001818,53.2195,9.8317,104.9849,255.1345,-0.00018304,-3.201e-05,0.0,0 STARLINK-3550,1 52373U 22045AU  23322.50621506 -.00003201  00000-0 -18304-3 0  9997,2 52373  53.2195   9.8317 0001818 104.9849 255.1345 15.08852372 88785,6917.843,95.437,540.965,538.45,0.0
52373.0,STARLINK-3550,PAYLOAD,2023-11-18 20:05:53,15.08834428,0.0001497,53.2195,8.345,96.3996,263.7167,3.3045e-05,2.38e-06,0.0,0 STARLINK-3550,1 52373U 22045AU  23322.83742075  .00000238  00000-0  33045-4 0  9993,2 52373  53.2195   8.3450 0001497  96.3996 263.7167 15.08834428 88832,6917.897,95.438,540.798,538.727,0.0
52373.0,STARLINK-3550,PAYLOAD,2023-11-19 10:24:20,15.08842067,0.0001455,53.219,5.6681,94.4719,265.6439,6.195e-05,6.98e-06,0.0,0 STARLINK-3550,1 52373U 22045AU  23323.43357596  .00000698  00000-0  61950-4 0  9996,2 52373  53.2190   5.6681 0001455  94.4719 265.6439 15.08842067 88920,6917.874,95.437,540.746,538.733,0.0
52373.0,STARLINK-3550,PAYLOAD,2023-11-19 11:59:43,15.08843588,0.0001473,53.2191,5.3709,95.2486,264.8674,7.4231e-05,8.94e-06,0.0,0 STARLINK-3550,1 52373U 22045AU  23323.49981448  .00000894  00000-0  74231-4 0  9995,2 52373  53.2191   5.3709 0001473  95.2486 264.8674 15.08843588 88931,6917.869,95.437,540.753,538.715,0.0
52373.0,STARLINK-3550,PAYLOAD,2023-11-19 19:56:39,15.08843274,0.0001483,53.2192,3.884,91.3506,268.7656,2.3771e-05,9e-07,0.0,0 STARLINK-3550,1 52373U 22045AU  23323.83101593  .00000090  00000-0  23771-4 0  9999,2 52373  53.2192   3.8840 0001483  91.3506 268.7656 15.08843274 88982,6917.87,95.437,540.761,538.709,0.0
52373.0,STARLINK-3550,PAYLOAD,2023-11-20 08:39:45,15.08838973,0.0001518,53.2189,1.505,86.9603,273.1563,4.2402e-05,3.87e-06,0.0,0 STARLINK-3550,1 52373U 22045AU  23324.36093917  .00000387  00000-0  42402-4 0  9999,2 52373  53.2189   1.5050 0001518  86.9603 273.1563 15.08838973 89060,6917.884,95.438,540.799,538.698,0.0
52373.0,STARLINK-3550,PAYLOAD,2023-11-20 19:47:26,15.08841181,0.0001545,53.2191,359.4236,86.6291,273.4878,6.1678e-05,6.94e-06,0.0,0 STARLINK-3550,1 52373U 22045AU  23324.82461716  .00000694  00000-0  61678-4 0  9993,2 52373  53.2191 359.4236 0001545  86.6291 273.4878 15.08841181 89139,6917.877,95.437,540.811,538.673,0.0
52373.0,STARLINK-3550,PAYLOAD,2023-11-21 10:05:54,15.08846059,0.0001452,53.2185,356.748,83.4514,276.6643,6.7365e-05,7.84e-06,0.0,0 STARLINK-3550,1 52373U 22045AU  23325.42077295  .00000784  00000-0  67365-4 0  9994,2 52373  53.2185 356.7480 0001452  83.4514 276.6643 15.08846059 89227,6917.862,95.437,540.731,538.722,0.0
52373.0,STARLINK-3550,PAYLOAD,2023-11-22 11:32:04,15.08849087,0.0001678,53.2195,351.9867,92.7572,267.3612,9.3742e-05,1.205e-05,0.0,0 STARLINK-3550,1 52373U 22045AU  23326.48060816  .00001205  00000-0  93742-4 0  9999,2 52373  53.2195 351.9867 0001678  92.7572 267.3612 15.08849087 89385,6917.853,95.437,540.878,538.557,0.0
52373.0,STARLINK-3550,PAYLOAD,2023-11-23 01:50:33,15.08833689,0.0001308,53.2181,349.3128,93.5535,266.5607,-3.2574e-05,-8.06e-06,0.0,0 STARLINK-3550,1 52373U 22045AU  23327.07678143 -.00000806  00000-0 -32574-4 0  9997,2 52373  53.2181 349.3128 0001308  93.5535 266.5607 15.08833689 89475,6917.9,95.438,540.67,538.86,0.0
52373.0,STARLINK-3550,PAYLOAD,2023-11-23 11:22:52,15.08845111,0.000156,53.2186,347.5271,103.598,256.5186,9.8354e-06,-1.31e-06,0.0,0 STARLINK-3550,1 52373U 22045AU  23327.47421332 -.00000131  00000-0  98354-5 0  9996,2 52373  53.2186 347.5271 0001560 103.5980 256.5186 15.08845111 89536,6917.865,95.437,540.809,538.651,0.0
52373.0,STARLINK-3550,PAYLOAD,2023-11-24 01:41:21,15.08832045,0.0001292,53.2191,344.8521,105.0313,255.0823,-0.00014181,-2.544e-05,0.0,0 STARLINK-3550,1 52373U 22045AU  23328.07038958 -.00002544  00000-0 -14181-3 0  9996,2 52373  53.2191 344.8521 0001292 105.0313 255.0823 15.08832045 89623,6917.905,95.438,540.663,538.876,0.0
52373.0,STARLINK-3550,PAYLOAD,2023-11-24 11:13:40,15.08838671,0.0001506,53.2189,343.0667,109.958,250.1575,-5.5147e-05,-1.166e-05,0.0,0 STARLINK-3550,1 52373U 22045AU  23328.46782428 -.00001166  00000-0 -55147-4 0  9994,2 52373  53.2189 343.0667 0001506 109.9580 250.1575 15.08838671 89686,6917.884,95.438,540.791,538.708,0.0
52373.0,STARLINK-3550,PAYLOAD,2023-11-25 07:53:40,15.08848541,0.0001494,53.2186,339.2021,107.694,252.4216,0.00019547,2.825e-05,0.0,0 STARLINK-3550,1 52373U 22045AU  23329.32893705  .00002825  00000-0  19547-3 0  9995,2 52373  53.2186 339.2021 0001494 107.6940 252.4216 15.08848541 89814,6917.854,95.437,540.753,538.686,0.0
52373.0,STARLINK-3550,PAYLOAD,2023-11-26 01:22:55,15.08846386,0.0001604,53.2171,335.9321,97.0501,263.0673,0.00024355,3.591e-05,0.0,0 STARLINK-3550,1 52373U 22045AU  23330.05758172  .00003591  00000-0  24355-3 0  9999,2 52373  53.2171 335.9321 0001604  97.0501 263.0673 15.08846386 89924,6917.861,95.437,540.835,538.616,0.0
52373.0,STARLINK-3550,PAYLOAD,2023-11-26 06:09:04,15.08846627,0.0001651,53.2174,335.0401,102.2453,257.8724,0.00021016,3.059e-05,0.0,0 STARLINK-3550,1 52373U 22045AU  23330.25629998  .00003059  00000-0  21016-3 0  9994,2 52373  53.2174 335.0401 0001651 102.2453 257.8724 15.08846627 89953,6917.86,95.437,540.867,538.583,0.0
52373.0,STARLINK-3550,PAYLOAD,2023-11-27 04:24:29,15.08822147,0.0001359,53.218,330.8778,97.6731,262.4416,-0.00023194,-3.975e-05,0.0,0 STARLINK-3550,1 52373U 22045AU  23331.18367717 -.00003975  00000-0 -23194-3 0  9993,2 52373  53.2180 330.8778 0001359  97.6731 262.4416 15.08822147 90099,6917.935,95.439,540.74,538.86,0.0
52373.0,STARLINK-3550,PAYLOAD,2023-11-27 07:35:16,15.0881247,0.0001448,53.2173,330.2786,98.8278,261.2878,-0.0002892,-4.884e-05,0.0,0 STARLINK-3550,1 52373U 22045AU  23331.31616329 -.00004884  00000-0 -28920-3 0  9996,2 52373  53.2173 330.2786 0001448  98.8278 261.2878 15.08812470 90112,6917.965,95.439,540.831,538.828,0.0
52373.0,STARLINK-3550,PAYLOAD,2023-11-28 01:04:30,15.0883555,0.0001498,53.2183,327.0118,97.9342,262.182,1.2859e-05,-8.3e-07,0.0,0 STARLINK-3550,1 52373U 22045AU  23332.04480036 -.00000083  00000-0  12859-4 0  9992,2 52373  53.2183 327.0118 0001498  97.9342 262.1820 15.08835550 90226,6917.894,95.438,540.795,538.723,0.0
52373.0,STARLINK-3550,PAYLOAD,2023-11-28 07:26:02,15.08852371,0.0001618,53.2187,325.8208,98.6063,261.5112,0.00016828,2.392e-05,0.0,0 STARLINK-3550,1 52373U 22045AU  23332.30974758  .00002392  00000-0  16828-3 0  9993,2 52373  53.2187 325.8208 0001618  98.6063 261.5112 15.08852371 90269,6917.843,95.437,540.827,538.588,0.0
52373.0,STARLINK-3550,PAYLOAD,2023-11-29 04:06:03,15.08834992,0.0001624,53.2188,321.9567,92.2646,267.8532,0.00032033,4.813e-05,0.0,0 STARLINK-3550,1 52373U 22045AU  23333.17087883  .00004813  00000-0  32033-3 0  9999,2 52373  53.2188 321.9567 0001624  92.2646 267.8532 15.08834992 90397,6917.896,95.438,540.884,538.637,0.0
52373.0,STARLINK-3550,PAYLOAD,2023-11-29 08:52:12,15.08843775,0.0001913,53.2179,321.0618,128.4359,231.6805,0.00041956,6.396e-05,0.0,0 STARLINK-3550,1 52373U 22045AU  23333.36959068  .00006396  00000-0  41956-3 0  9995,2 52373  53.2179 321.0618 0001913 128.4359 231.6805 15.08843775 90424,6917.869,95.437,541.057,538.41,0.0
52373.0,STARLINK-3550,PAYLOAD,2023-11-30 03:56:50,15.08847503,0.0001834,53.2186,317.4952,90.8946,269.2257,-1.3835e-05,-5.08e-06,0.0,0 STARLINK-3550,1 52373U 22045AU  23334.16447542 -.00000508  00000-0 -13835-4 0  9990,2 52373  53.2186 317.4952 0001834  90.8946 269.2257 15.08847503 90542,6917.857,95.437,540.991,538.454,0.0
